[Satellite]
VERSION=1.1
NAME=AEROCUBE 12B
NICKNAME=AEROCUBE 12B
TLE1=1 43557U 18046D   20157.73667216  .00000879  00000-0  42719-4 0  9997
TLE2=2 43557  51.6412 162.5171 0007813 253.4712 106.5410 15.29500477105521
STATUS=0
